GSAT0209 (GALILEO 12)   
1 41174U 15079A   25333.01375871  .00000054  00000+0  00000+0 0  9994
2 41174  55.7045 106.7579 0002328 359.5232   0.4568  1.70474337 61369
GSAT0208 (GALILEO 11)   
1 41175U 15079B   25334.40706765  .00000048  00000+0  00000+0 0  9992
2 41175  55.7038 106.7167 0001887  11.7228 348.2564  1.70474193 61804
IRNSS-1E                
1 41241U 16003A   25334.67023924 -.00000292  00000+0  00000+0 0  9994
2 41241  32.7992  62.6290 0021940 186.3992 173.7167  1.00279055 36094
NAVSTAR 76 (USA 266)    
1 41328U 16007A   25333.92921629  .00000033  00000+0  00000+0 0  9992
2 41328  55.3987  97.3656 0091544 243.2609 115.7881  2.00561276 71842
COSMOS 2514 [GLONASS-M] 
1 41330U 16008A   25334.31877862 -.00000021  00000+0  00000+0 0  9997
2 41330  65.1409 319.8297 0012544 219.8205 140.1015  2.13102507 76387
IRNSS-1F                
1 41384U 16015A   25334.58323082  .00000181  00000+0  00000+0 0  9999
2 41384   4.8498 101.6022 0022355 179.2049  31.3133  1.00266329 35670
BEIDOU-2 IGSO-6         
1 41434U 16021A   25333.66755465 -.00000150  00000+0  00000+0 0  9991
2 41434  59.9454  40.0323 0059091 231.0312 130.2075  1.00257137 35486
IRNSS-1G                
1 41469U 16027A   25334.81649250 -.00000311  00000+0  00000+0 0  9996
2 41469   4.7073 102.3960 0001438  17.5397  13.4616  1.00267404 35199
